NORAD_CAT_ID,OBJECT_NAME,OBJECT_TYPE,EPOCH,MEAN_MOTION,ECCENTRICITY,INCLINATION,RA_OF_ASC_NODE,ARG_OF_PERICENTER,MEAN_ANOMALY,BSTAR,MEAN_MOTION_DOT,MEAN_MOTION_DDOT,TLE_LINE0,TLE_LINE1,TLE_LINE2,SEMIMAJOR_AXIS,PERIOD,APOGEE,PERIGEE,DECAYED
50843.0,STARLINK-3325,PAYLOAD,2023-06-10 13:24:13,15.08781609,0.0001463,53.2184,2.3499,105.4395,254.6759,0.00087777,0.00013687,0.0,0 STARLINK-3325,1 50843U 22001AS  23161.55848707  .00013687  00000-0  87777-3 0  9996,2 50843  53.2184   2.3499 0001463 105.4395 254.6759 15.08781609 78821,6918.059,95.441,540.936,538.912,0.0
50843.0,STARLINK-3325,PAYLOAD,2023-06-10 19:45:45,15.08813351,0.0001229,53.2181,1.1609,102.3086,257.8044,0.00055929,8.618e-05,0.0,0 STARLINK-3325,1 50843U 22001AS  23161.82344584  .00008618  00000-0  55929-3 0  9992,2 50843  53.2181   1.1609 0001229 102.3086 257.8044 15.08813351 78867,6917.962,95.439,540.677,538.977,0.0
50843.0,STARLINK-3325,PAYLOAD,2023-06-10 22:56:32,15.08794016,0.0001425,53.2181,0.5662,102.2679,257.8473,0.00086079,0.00013421,0.0,0 STARLINK-3325,1 50843U 22001AS  23161.95593272  .00013421  00000-0  86079-3 0  9994,2 50843  53.2181   0.5662 0001425 102.2679 257.8473 15.08794016 80083,6918.021,95.44,540.872,538.9,0.0
50843.0,STARLINK-3325,PAYLOAD,2023-06-11 06:53:27,15.0884134,0.0001133,53.2184,359.0774,95.3175,264.7947,5.039e-05,5.14e-06,0.0,0 STARLINK-3325,1 50843U 22001AS  23162.28712229  .00000514  00000-0  50390-4 0  9993,2 50843  53.2184 359.0774 0001133  95.3175 264.7947 15.08841340 80133,6917.876,95.437,540.525,538.957,0.0
50843.0,STARLINK-3325,PAYLOAD,2023-06-11 13:15:00,15.08828504,0.0001199,53.2183,357.888,96.819,263.2938,0.00017862,2.555e-05,0.0,0 STARLINK-3325,1 50843U 22001AS  23162.55208763  .00002555  00000-0  17862-3 0  9999,2 50843  53.2183 357.8880 0001199  96.8190 263.2938 15.08828504 78971,6917.916,95.438,540.61,538.951,0.0
50843.0,STARLINK-3325,PAYLOAD,2023-06-11 19:36:32,15.0883731,0.0001141,53.2177,356.7002,84.1622,275.95,6.831e-05,7.99e-06,0.0,0 STARLINK-3325,1 50843U 22001AS  23162.81704538  .00000799  00000-0  68310-4 0  9992,2 50843  53.2177 356.7002 0001141  84.1622 275.9500 15.08837310 79011,6917.889,95.438,540.543,538.964,0.0
50843.0,STARLINK-3325,PAYLOAD,2023-06-11 22:47:18,15.08840541,0.0001261,53.218,356.1047,90.2325,269.8811,6.4203e-05,7.34e-06,0.0,0 STARLINK-3325,1 50843U 22001AS  23162.94952328  .00000734  00000-0  64203-4 0  9994,2 50843  53.2180 356.1047 0001261  90.2325 269.8811 15.08840541 80232,6917.879,95.438,540.616,538.871,0.0
50843.0,STARLINK-3325,PAYLOAD,2023-06-12 19:27:19,15.08840586,0.0001266,53.2185,352.2389,89.7243,270.3894,4.1578e-05,3.74e-06,0.0,0 STARLINK-3325,1 50843U 22001AS  23163.81064401  .00000374  00000-0  41578-4 0  9997,2 50843  53.2185 352.2389 0001266  89.7243 270.3894 15.08840586 79167,6917.879,95.438,540.619,538.868,0.0
50843.0,STARLINK-3325,PAYLOAD,2023-06-13 04:59:39,15.08823244,0.0001413,53.2184,350.4532,89.3273,270.7881,-7.4013e-05,-1.465e-05,0.0,0 STARLINK-3325,1 50843U 22001AS  23164.20809971 -.00001465  00000-0 -74013-4 0  9994,2 50843  53.2184 350.4532 0001413  89.3273 270.7881 15.08823244 80422,6917.932,95.439,540.774,538.819,0.0
50843.0,STARLINK-3325,PAYLOAD,2023-06-13 12:56:35,15.08822612,0.0001374,53.2185,348.9661,90.5232,269.5917,-5.3227e-05,-1.134e-05,0.0,0 STARLINK-3325,1 50843U 22001AS  23164.53930344 -.00001134  00000-0 -53227-4 0  9996,2 50843  53.2185 348.9661 0001374  90.5232 269.5917 15.08822612 79278,6917.934,95.439,540.749,538.848,0.0
50843.0,STARLINK-3325,PAYLOAD,2023-06-13 19:18:08,15.08823391,0.0001293,53.2186,347.7782,85.3603,274.7537,-6.2279e-06,-3.87e-06,0.0,0 STARLINK-3325,1 50843U 22001AS  23164.80426498 -.00000387  00000-0 -62279-5 0  9993,2 50843  53.2186 347.7782 0001293  85.3603 274.7537 15.08823391 79310,6917.931,95.439,540.691,538.902,0.0
50843.0,STARLINK-3325,PAYLOAD,2023-06-14 12:47:22,15.08840764,9.59e-05,53.2187,344.5084,83.9632,276.147,6.6385e-05,7.69e-06,0.0,0 STARLINK-3325,1 50843U 22001AS  23165.53289799  .00000769  00000-0  66385-4 0  9998,2 50843  53.2187 344.5084 0000959  83.9632 276.1470 15.08840764 80626,6917.878,95.438,540.406,539.08,0.0
50843.0,STARLINK-3325,PAYLOAD,2023-06-14 20:44:17,15.08846386,9.72e-05,53.2178,343.0219,88.2197,271.8906,0.00022431,3.285e-05,0.0,0 STARLINK-3325,1 50843U 22001AS  23165.86409526  .00003285  00000-0  22431-3 0  9995,2 50843  53.2178 343.0219 0000972  88.2197 271.8906 15.08846386 79472,6917.861,95.437,540.398,539.053,0.0
50843.0,STARLINK-3325,PAYLOAD,2023-06-15 12:38:09,15.08856805,8.88e-05,53.2167,340.0477,87.5805,272.5289,0.00045564,6.974e-05,0.0,0 STARLINK-3325,1 50843U 22001AS  23166.52649462  .00006974  00000-0  45564-3 0  9994,2 50843  53.2167 340.0477 0000888  87.5805 272.5289 15.08856805 79577,6917.829,95.436,540.308,539.08,0.0
50843.0,STARLINK-3325,PAYLOAD,2023-06-15 17:24:18,15.08863638,8.7e-05,53.2167,339.1557,87.4193,272.6898,0.00056209,8.675e-05,0.0,0 STARLINK-3325,1 50843U 22001AS  23166.72521066  .00008675  00000-0  56209-3 0  9993,2 50843  53.2167 339.1557 0000870  87.4193 272.6898 15.08863638 80802,6917.808,95.436,540.275,539.071,0.0
50843.0,STARLINK-3325,PAYLOAD,2023-06-16 10:53:32,15.08861531,0.0001063,53.2148,335.8843,94.8585,265.2528,0.00045107,6.902e-05,0.0,0 STARLINK-3325,1 50843U 22001AS  23167.45384384  .00006902  00000-0  45107-3 0  9990,2 50843  53.2148 335.8843 0001063  94.8585 265.2528 15.08861531 80914,6917.815,95.436,540.415,538.944,0.0
50843.0,STARLINK-3325,PAYLOAD,2023-06-16 20:25:50,15.0886497,8.87e-05,53.2165,334.1003,96.6939,263.4154,0.00051147,7.867e-05,0.0,0 STARLINK-3325,1 50843U 22001AS  23167.85127799  .00007867  00000-0  51147-3 0  9991,2 50843  53.2165 334.1003 0000887  96.6939 263.4154 15.08864970 79776,6917.804,95.436,540.283,539.055,0.0
50843.0,STARLINK-3325,PAYLOAD,2023-06-17 10:44:19,15.08831978,0.0001959,53.2174,331.4243,77.3661,282.755,1.6991e-06,-2.61e-06,0.0,0 STARLINK-3325,1 50843U 22001AS  23168.44745042 -.00000261  00000-0  16991-5 0  9996,2 50843  53.2174 331.4243 0001959  77.3661 282.7550 15.08831978 81062,6917.905,95.438,541.125,538.415,0.0
50843.0,STARLINK-3325,PAYLOAD,2023-06-17 17:05:52,15.08831414,0.0001924,53.2174,330.2349,77.5717,282.5491,0.00017323,2.469e-05,0.0,0 STARLINK-3325,1 50843U 22001AS  23168.71241285  .00002469  00000-0  17323-3 0  9995,2 50843  53.2174 330.2349 0001924  77.5717 282.5491 15.08831414 79909,6917.907,95.438,541.103,538.441,0.0
50843.0,STARLINK-3325,PAYLOAD,2023-06-18 04:13:35,15.08827795,9.66e-05,53.2179,328.153,72.5349,287.5749,0.00075692,0.00011775,0.0,0 STARLINK-3325,1 50843U 22001AS  23169.17609960  .00011775  00000-0  75692-3 0  9997,2 50843  53.2179 328.1530 0000966  72.5349 287.5749 15.08827795 79978,6917.918,95.438,540.451,539.114,0.0
50843.0,STARLINK-3325,PAYLOAD,2023-06-18 16:56:39,15.08851755,9.58e-05,53.2175,325.7744,60.8826,299.2262,0.0011835,0.00018604,0.0,0 STARLINK-3325,1 50843U 22001AS  23169.70601838  .00018604  00000-0  11835-2 0  9998,2 50843  53.2175 325.7744 0000958  60.8826 299.2262 15.08851755 81252,6917.844,95.437,540.372,539.047,0.0
50843.0,STARLINK-3325,PAYLOAD,2023-06-18 20:07:26,15.08858443,9.57e-05,53.2178,325.1797,59.6553,300.4533,0.001234,0.00019416,0.0,0 STARLINK-3325,1 50843U 22001AS  23169.83849665  .00019416  00000-0  12340-2 0  9998,2 50843  53.2178 325.1797 0000957  59.6553 300.4533 15.08858443 80075,6917.824,95.436,540.351,539.027,0.0
50843.0,STARLINK-3325,PAYLOAD,2023-06-19 10:25:54,15.08854051,9.83e-05,53.2179,322.5035,60.6134,299.4956,0.00062256,9.638e-05,0.0,0 STARLINK-3325,1 50843U 22001AS  23170.43465461  .00009638  00000-0  62256-3 0  9991,2 50843  53.2179 322.5035 0000983  60.6134 299.4956 15.08854051 81368,6917.837,95.437,540.382,539.022,0.0
50843.0,STARLINK-3325,PAYLOAD,2023-06-19 16:47:26,15.08863186,8.2e-05,53.2182,321.314,56.2912,303.8158,0.00077142,0.00012018,0.0,0 STARLINK-3325,1 50843U 22001AS  23170.69961067  .00012018  00000-0  77142-3 0  9998,2 50843  53.2182 321.3140 0000820  56.2912 303.8158 15.08863186 80206,6917.81,95.436,540.242,539.107,0.0
50843.0,STARLINK-3325,PAYLOAD,2023-06-20 10:16:41,15.08852115,0.0001072,53.2186,318.0436,59.341,300.7687,0.00082162,0.00012817,0.0,0 STARLINK-3325,1 50843U 22001AS  23171.42825266  .00012817  00000-0  82162-3 0  9995,2 50843  53.2186 318.0436 0001072  59.3410 300.7687 15.08852115 81516,6917.843,95.437,540.45,538.967,0.0
50843.0,STARLINK-3325,PAYLOAD,2023-06-21 02:10:32,15.08855363,6.35e-05,53.2189,315.0701,70.3377,289.7684,0.00095009,0.00014871,0.0,0 STARLINK-3325,1 50843U 22001AS  23172.09065020  .00014871  00000-0  95009-3 0  9999,2 50843  53.2189 315.0701 0000635  70.3377 289.7684 15.08855363 81612,6917.833,95.437,540.138,539.259,0.0
50843.0,STARLINK-3325,PAYLOAD,2023-06-21 13:18:14,15.08847739,0.0001142,53.2192,312.9892,100.2305,259.8816,0.00039439,5.996e-05,0.0,0 STARLINK-3325,1 50843U 22001AS  23172.55433074  .00005996  00000-0  39439-3 0  9991,2 50843  53.2192 312.9892 0001142 100.2305 259.8816 15.08847739 80488,6917.857,95.437,540.512,538.932,0.0
50843.0,STARLINK-3325,PAYLOAD,2023-06-21 16:29:00,15.0885235,0.0001012,53.2199,312.3961,86.8601,273.2507,0.00032073,4.822e-05,0.0,0 STARLINK-3325,1 50843U 22001AS  23172.68680846  .00004822  00000-0  32073-3 0  9990,2 50843  53.2199 312.3961 0001012  86.8601 273.2507 15.08852350 81708,6917.843,95.437,540.408,539.008,0.0
50843.0,STARLINK-3325,PAYLOAD,2023-06-22 09:58:15,15.0883745,7.46e-05,53.2195,309.1245,78.3514,281.7562,6.395e-05,7.3e-06,0.0,0 STARLINK-3325,1 50843U 22001AS  23173.41545480  .00000730  00000-0  63950-4 0  9999,2 50843  53.2195 309.1245 0000746  78.3514 281.7562 15.08837450 81816,6917.888,95.438,540.269,539.237,0.0
50843.0,STARLINK-3325,PAYLOAD,2023-06-23 17:45:57,15.08851324,7.68e-05,53.217,303.177,95.3686,264.7393,0.00043986,6.722e-05,0.0,0 STARLINK-3325,1 50843U 22001AS  23174.74025129  .00006722  00000-0  43986-3 0  9992,2 50843  53.2170 303.1770 0000768  95.3686 264.7393 15.08851324 82011,6917.846,95.437,540.242,539.179,0.0
